STARLINK-5622           
1 55358C 23013AD  26201.41993056 -.00025643  00000+0 -92847-3 0  2013
2 55358  43.0001 273.6665 0002103 265.5792 127.5913 15.27600885    14
STARLINK-5641           
1 55359C 23013AE  26201.39909722 -.00023247  00000+0 -84223-3 0  2015
2 55359  43.0004 277.3761 0001432 265.5166 297.8832 15.27580820    12
STARLINK-5664           
1 55360C 23013AF  26201.43104167 -.00028430  00000+0 -10301-2 0  2016
2 55360  43.0007 291.7601 0001093 276.5105 155.0754 15.27581524    18
STARLINK-5665           
1 55361C 23013AG  26201.44631944 -.00005784  00000+0 -20952-3 0  2017
2 55361  43.0031 258.8628 0002119 288.3926 226.1263 15.27573734    10
STARLINK-5574           
1 55362C 23013AH  26201.38381944 -.00018154  00000+0 -65763-3 0  2017
2 55362  43.0025 259.1350 0001772 308.8933 256.8964 15.27582755    11
STARLINK-5627           
1 55364C 23013AK  26201.40256944 -.00023127  00000+0 -83772-3 0  2019
2 55364  43.0001 277.3053 0001607 261.8162 341.9350 15.27587656    18
STARLINK-5639           
1 55365C 23013AL  26201.38868056 -.00023156  00000+0 -83886-3 0  2018
2 55365  43.0002 291.9056 0001894 273.0350 327.7928 15.27583354    11
STARLINK-5654           
1 55366C 23013AM  26201.44562500 -.00156530  00000+0 -56661-2 0  2014
2 55366  43.0017 258.7355 0001546 267.6033 299.6892 15.27676371    11
STARLINK-5635           
1 55367C 23013AN  26201.44215278 -.00009900  00000+0 -35861-3 0  2010
2 55367  42.9988 259.2130 0001476 272.4559  77.6014 15.27579787    16
STARLINK-5625           
1 55368C 23013AP  26201.40951389 -.00018464  00000+0 -66888-3 0  2015
2 55368  43.0016 258.9710 0001784 285.9031  68.4344 15.27580815    15
STARLINK-5644           
1 55369C 23013AQ  26201.43868056 -.00023306  00000+0 -84391-3 0  2017
2 55369  43.0008 291.5739 0001368 270.8204 266.4243 15.27599387    16
STARLINK-5027           
1 55370C 23013AR  26201.42895833 -.00028457  00000+0 -10308-2 0  2019
2 55370  43.0007 291.7677 0001200 266.8446 160.3636 15.27589279    15
STARLINK-5590           
1 55371C 23013AS  26201.39006944 -.00027005  00000+0 -97818-3 0  2013
2 55371  43.0007 291.7968 0001422 268.0053  22.9039 15.27590031    11
STARLINK-5568           
1 55372C 23013AT  26201.44145833 -.00036008  00000+0 -13039-2 0  2016
2 55372  43.0010 288.6967 0001778 268.1261  48.2585 15.27603526    17
STARLINK-5581           
1 55373C 23013AU  26201.42756944 -.00024010  00000+0 -86971-3 0  2012
2 55373  43.0020 292.2274 0001946 272.1332 309.3391 15.27586760    18
STARLINK-5578           
1 55374C 23013AV  26201.39076389 -.00029040  00000+0 -10521-2 0  2012
2 55374  43.0025 292.4105 0002034 279.3830 113.5950 15.27583668    10
STARLINK-5588           
1 55375C 23013AW  26201.43520833 -.00028445  00000+0 -10306-2 0  2015
2 55375  43.0015 291.8245 0001283 268.5291 150.6520 15.27584405    19
STARLINK-5586           
1 55376C 23013AX  26201.39840278 -.00019498  00000+0 -70640-3 0  2015
2 55376  43.0004 259.4127 0001469 270.7123 219.7396 15.27579208    15
STARLINK-5567           
1 55377C 23013AY  26201.43590278 -.00025272  00000+0 -91533-3 0  2014
2 55377  43.0014 288.6708 0002006 273.0060  34.0165 15.27590597    16
STARLINK-5572           
1 55378C 23013AZ  26201.40743056 -.00039832  00000+0 -14434-2 0  2017
2 55378  43.0003 291.6632 0001508 263.2240 137.4197 15.27582810    14
STARLINK-5569           
1 55379C 23013BA  26201.44215278 -.00028022  00000+0 -10151-2 0  2013
2 55379  43.0028 288.5535 0002164 271.2439 105.6183 15.27585350    11
STARLINK-5571           
1 55380C 23013BB  26201.40048611  .00154320  00000+0  61260-2 0  2012
2 55380  43.0002 277.8672 0001723 277.1162 336.2554 15.24469179    17
STARLINK-5575           
1 55381C 23013BC  26201.44701389 -.00027056  00000+0 -98036-3 0  2014
2 55381  43.0014 288.6247 0001951 281.9903  79.1685 15.27577904    15
STARLINK-5576           
1 55382C 23013BD  26201.39909722 -.00182510  00000+0 -66065-2 0  2013
2 55382  43.0022 288.8493 0001456 283.6643 194.9734 15.27689594    10
STARLINK-5531           
1 55383C 23013BE  26201.44284722 -.00011415  00000+0 -41363-3 0  2016
2 55383  43.0018 259.0067 0002172 291.0774 147.6346 15.27569736    16
STARLINK-5537           
1 55384C 23013BF  26201.45118056 -.00026196  00000+0 -94890-3 0  2019
2 55384  43.0030 288.4580 0002007 279.9317 167.8798 15.27587492    16
STARLINK-5556           
1 55385C 23013BG  26201.43312500 -.00025247  00000+0 -91418-3 0  2017
2 55385  43.0026 288.6348 0001896 284.2137  28.7444 15.27599605    12
STARLINK-5555           
1 55386C 23013BH  26201.39909722 -.00030369  00000+0 -11001-2 0  2011
2 55386  43.0010 288.9454 0001683 264.6617 171.4947 15.27588126    16
STARLINK-5085           
1 55392C 23014B   26201.41923611  .00033375  00000+0  27977-2 0  2012
2 55392  70.0008  69.6877 0002749 267.3833  69.0912 14.98304129    17
STARLINK-4786           
1 55393C 23014C   26201.42826389 -.00003845  00000+0 -32229-3 0  2016
2 55393  70.0015  89.6760 0002660 258.7829  12.5569 14.98325226    12
STARLINK-5274           
1 55395C 23014E   26201.40048611 -.00027566  00000+0 -23105-2 0  2018
2 55395  70.0013  89.6749 0002495 271.6714 254.8481 14.98339100    12
STARLINK-5283           
1 55396C 23014F   26201.44770833  .00012631  00000+0  10587-2 0  2016
2 55396  70.0015  89.5914 0002768 248.9545 149.8120 14.98318464    13
STARLINK-5224           
1 55397C 23014G   26201.33590278 -.00033756  00000+0 -28293-2 0  2014
2 55397  70.0013  70.1615 0003003 267.9923  91.3815 14.98341665    11
STARLINK-5275           
1 55398C 23014H   26201.41784722 -.00014970  00000+0 -12549-2 0  2017
2 55398  70.0011  89.7648 0002704 265.8420 241.8591 14.98326596    17
STARLINK-5276           
1 55399C 23014J   26201.42548611 -.00007004  00000+0 -58715-3 0  2010
2 55399  70.0013  89.6955 0002894 268.2205 325.6907 14.98323677    17
STARLINK-5632           
1 55400C 23014K   26201.40118056 -.00026042  00000+0 -21832-2 0  2019
2 55400  70.0010  89.8526 0002634 265.9667 106.8514 14.98330506    13
STARLINK-5076           
1 55401C 23014L   26201.39909722 -.00028263  00000+0 -23691-2 0  2018
2 55401  70.0012  89.7872 0002854 267.5131 161.5877 14.98336762    17
STARLINK-5071           
1 55402C 23014M   26201.42270833 -.00009941  00000+0 -83309-3 0  2012
2 55402  70.0010  89.8538 0002758 270.0307 173.7681 14.98337773    14
STARLINK-5597           
1 55403C 23014N   26201.38659722 -.00034832  00000+0 -29199-2 0  2019
2 55403  70.0010  89.8696 0002565 267.5032  49.1726 14.98337783    19
STARLINK-5607           
1 55404C 23014P   26201.41437500 -.00015896  00000+0 -13327-2 0  2017
2 55404  70.0010  89.9258 0002475 270.1993  83.7298 14.98325681    13
STARLINK-5623           
1 55405C 23014Q   26201.43104167 -.00003964  00000+0 -33233-3 0  2012
2 55405  70.0010  89.8076 0002673 269.8407 241.4902 14.98323016    11
STARLINK-5630           
1 55406C 23014R   26201.41784722 -.00013091  00000+0 -10974-2 0  2010
2 55406  70.0011  89.9431 0002735 269.9594  80.1844 14.98325270    13
STARLINK-5019           
1 55407C 23014S   26201.43937500  .00003019  00000+0  25308-3 0  2012
2 55407  70.0010  89.8372 0002792 263.1030 248.1451 14.98319592    10
STARLINK-5633           
1 55410C 23014V   26201.38798611 -.00053903  00000+0 -45185-2 0  2011
2 55410  70.0009 109.7111 0002725 270.8220  74.6427 14.98347807    12
STARLINK-5605           
1 55411C 23014W   26201.38451389 -.00036682  00000+0 -30737-2 0  2012
2 55411  70.0010  90.0782 0002877 267.1332 218.1457 14.98354633    15
STARLINK-5060           
1 55413C 23014Y   26201.40812500 -.00048831  00000+0 -40932-2 0  2010
2 55413  70.0009 109.6347 0002634 271.8613 204.7234 14.98347789    12
STARLINK-5620           
1 55414C 23014Z   26201.44840278 -.00029719  00000+0 -24912-2 0  2012
2 55414  70.0012 109.6348 0002827 270.0152 333.7214 14.98336311    11
STARLINK-5624           
1 55416C 23014AB  26201.39493056 -.00050684  00000+0 -42494-2 0  2016
2 55416  70.0012 109.8202 0003048 268.3906   1.9700 14.98339633    11
STARLINK-5030           
1 55418C 23014AD  26201.43451389 -.00038772  00000+0 -32497-2 0  2012
2 55418  70.0013 109.7705 0003240 267.9415 170.8572 14.98343409    14
STARLINK-5629           
1 55419C 23014AE  26201.43173611 -.00039774  00000+0 -33339-2 0  2011
2 55419  70.0012 109.7026 0002790 263.3035 228.0461 14.98343825    12
STARLINK-5604           
1 55420C 23014AF  26201.44770833  .00054879  00000+0  46014-2 0  2018
2 55420  70.0011  69.7497 0002880 270.0592 107.4167 14.98283580    17
STARLINK-5598           
1 55421C 23014AG  26201.44562500 -.00031893  00000+0 -26739-2 0  2014
2 55421  70.0013 109.7177 0002893 271.2159 250.0146 14.98330039    10
STARLINK-5006           
1 55422C 23014AH  26201.39354167 -.00053120  00000+0 -44516-2 0  2017
2 55422  70.0010 109.7187 0003004 259.8035  93.0853 14.98358474    12
STARLINK-5068           
1 55423C 23014AJ  26201.43798611 -.00036756  00000+0 -30807-2 0  2013
2 55423  70.0011 109.8355 0002597 270.9436 119.0557 14.98344677    17
STARLINK-5615           
1 55425C 23014AL  26201.40256944 -.00047971  00000+0 -40210-2 0  2010
2 55425  70.0012 109.8767 0002819 269.8543 334.1739 14.98347247    18
STARLINK-5638           
1 55426C 23014AM  26201.42409722 -.00042212  00000+0 -35382-2 0  2014
2 55426  70.0011 109.9226 0002578 269.6697   0.4167 14.98345372    14
STARLINK-5064           
1 55428C 23014AP  26201.41645833 -.00045785  00000+0 -38376-2 0  2014
2 55428  70.0008 109.9918 0002823 264.3147 279.5626 14.98347691    10
STARLINK-5645           
1 55429C 23014AQ  26201.43798611 -.00036670  00000+0 -30736-2 0  2015
2 55429  70.0010 109.8622 0002899 267.0401 100.4517 14.98343456    17
STARLINK-5642           
1 55430C 23014AR  26201.42895833 -.00054586  00000+0 -45745-2 0  2012
2 55430  70.0012 129.6932 0003034 271.4569  91.1288 14.98358011    15
